[{"OBJECT_NAME":"STARLINK-5205","OBJECT_ID":"2022-141AX","EPOCH":"2026-03-09T18:21:18.234432","MEAN_MOTION":15.08837111,"ECCENTRICITY":0.00016105,"INCLINATION":53.2213,"RA_OF_ASC_NODE":353.4688,"ARG_OF_PERICENTER":95.7162,"MEAN_ANOMALY":264.4014,"EPHEMERIS_TYPE":0,"CLASSIFICATION_TYPE":"U","NORAD_CAT_ID":54202,"ELEMENT_SET_NO":999,"REV_AT_EPOCH":18601,"BSTAR":-2.0864165e-5,"MEAN_MOTION_DOT":-6.2e-6,"MEAN_MOTION_DDOT":0},{"OBJECT_NAME":"ONEWEB-0618","OBJECT_ID":"2023-004V","EPOCH":"2026-03-09T21:27:12.326688","MEAN_MOTION":15.11974897,"ECCENTRICITY":0.00107842,"INCLINATION":86.9069,"RA_OF_ASC_NODE":217.8931,"ARG_OF_PERICENTER":307.7231,"MEAN_ANOMALY":52.303,"EPHEMERIS_TYPE":0,"CLASSIFICATION_TYPE":"U","NORAD_CAT_ID":55159,"ELEMENT_SET_NO":999,"REV_AT_EPOCH":16725,"BSTAR":0.00049587895,"MEAN_MOTION_DOT":8.547e-5,"MEAN_MOTION_DDOT":0}]
